CCSDS_OMM_VERS = 2.0
CREATION_DATE  = 
ORIGINATOR     = 

OBJECT_NAME    = PROGRESS-MS 32
OBJECT_ID      = 2025-204A
CENTER_NAME    = EARTH
REF_FRAME      = TEME
TIME_SYSTEM    = UTC
MEAN_ELEMENT_THEORY = SGP/SGP4

EPOCH          = 2025-11-26T05:19:44.164416
MEAN_MOTION    = 15.49091452
ECCENTRICITY   = .00038201
INCLINATION    = 51.6311
RA_OF_ASC_NODE = 224.2419
ARG_OF_PERICENTER = 169.3460
MEAN_ANOMALY   = 190.7610

EPHEMERIS_TYPE = 0
CLASSIFICATION_TYPE = U
NORAD_CAT_ID   = 65586
ELEMENT_SET_NO = 999
REV_AT_EPOCH   = 27
BSTAR          = .20377242E-3
MEAN_MOTION_DOT = .10829E-3
MEAN_MOTION_DDOT = 0

CCSDS_OMM_VERS = 2.0
CREATION_DATE  = 
ORIGINATOR     = 

OBJECT_NAME    = CYGNUS NG-23
OBJECT_ID      = 2025-208A
CENTER_NAME    = EARTH
REF_FRAME      = TEME
TIME_SYSTEM    = UTC
MEAN_ELEMENT_THEORY = SGP/SGP4

EPOCH          = 2025-11-26T05:19:44.164416
MEAN_MOTION    = 15.49091452
ECCENTRICITY   = .00038201
INCLINATION    = 51.6311
RA_OF_ASC_NODE = 224.2419
ARG_OF_PERICENTER = 169.3460
MEAN_ANOMALY   = 190.7610

EPHEMERIS_TYPE = 0
CLASSIFICATION_TYPE = U
NORAD_CAT_ID   = 65616
ELEMENT_SET_NO = 999
REV_AT_EPOCH   = 22
BSTAR          = .20377242E-3
MEAN_MOTION_DOT = .10829E-3
MEAN_MOTION_DDOT = 0

CCSDS_OMM_VERS = 2.0
CREATION_DATE  = 
ORIGINATOR     = 

OBJECT_NAME    = DRAGONFLY
OBJECT_ID      = 1998-067XH
CENTER_NAME    = EARTH
REF_FRAME      = TEME
TIME_SYSTEM    = UTC
MEAN_ELEMENT_THEORY = SGP/SGP4

EPOCH          = 2025-11-26T02:42:19.812384
MEAN_MOTION    = 15.66234288
ECCENTRICITY   = .0006321
INCLINATION    = 51.6259
RA_OF_ASC_NODE = 220.5121
ARG_OF_PERICENTER = 183.3895
MEAN_ANOMALY   = 176.7059

EPHEMERIS_TYPE = 0
CLASSIFICATION_TYPE = U
NORAD_CAT_ID   = 65729
ELEMENT_SET_NO = 999
REV_AT_EPOCH   = 1055
BSTAR          = .12736279E-2
MEAN_MOTION_DOT = .135859E-2
MEAN_MOTION_DDOT = 0

CCSDS_OMM_VERS = 2.0
CREATION_DATE  = 
ORIGINATOR     = 

OBJECT_NAME    = 1998-067XJ
OBJECT_ID      = 1998-067XJ
CENTER_NAME    = EARTH
REF_FRAME      = TEME
TIME_SYSTEM    = UTC
MEAN_ELEMENT_THEORY = SGP/SGP4

EPOCH          = 2025-11-26T02:18:28.515168
MEAN_MOTION    = 15.93800834
ECCENTRICITY   = .00123839
INCLINATION    = 51.6173
RA_OF_ASC_NODE = 216.5994
ARG_OF_PERICENTER = 189.8744
MEAN_ANOMALY   = 170.2022

EPHEMERIS_TYPE = 0
CLASSIFICATION_TYPE = U
NORAD_CAT_ID   = 65730
ELEMENT_SET_NO = 999
REV_AT_EPOCH   = 1060
BSTAR          = .26464428E-2
MEAN_MOTION_DOT = .989567E-2
MEAN_MOTION_DDOT = .44370244E-3

CCSDS_OMM_VERS = 2.0
CREATION_DATE  = 
ORIGINATOR     = 

OBJECT_NAME    = 1998-067XK
OBJECT_ID      = 1998-067XK
CENTER_NAME    = EARTH
REF_FRAME      = TEME
TIME_SYSTEM    = UTC
MEAN_ELEMENT_THEORY = SGP/SGP4

EPOCH          = 2025-11-26T02:52:03.166176
MEAN_MOTION    = 15.62206517
ECCENTRICITY   = .00060967
INCLINATION    = 51.6289
RA_OF_ASC_NODE = 221.3146
ARG_OF_PERICENTER = 158.2486
MEAN_ANOMALY   = 201.8768

EPHEMERIS_TYPE = 0
CLASSIFICATION_TYPE = U
NORAD_CAT_ID   = 65731
ELEMENT_SET_NO = 999
REV_AT_EPOCH   = 1054
BSTAR          = .96831819E-3
MEAN_MOTION_DOT = .87381E-3
MEAN_MOTION_DDOT = 0

CCSDS_OMM_VERS = 2.0
CREATION_DATE  = 
ORIGINATOR     = 

OBJECT_NAME    = RSP-03
OBJECT_ID      = 1998-067XL
CENTER_NAME    = EARTH
REF_FRAME      = TEME
TIME_SYSTEM    = UTC
MEAN_ELEMENT_THEORY = SGP/SGP4

EPOCH          = 2025-11-26T09:42:55.291968
MEAN_MOTION    = 15.64180019
ECCENTRICITY   = .0006889
INCLINATION    = 51.6278
RA_OF_ASC_NODE = 219.4651
ARG_OF_PERICENTER = 160.6455
MEAN_ANOMALY   = 199.4803

EPHEMERIS_TYPE = 0
CLASSIFICATION_TYPE = U
NORAD_CAT_ID   = 65732
ELEMENT_SET_NO = 999
REV_AT_EPOCH   = 1060
BSTAR          = .10244E-2
MEAN_MOTION_DOT = .100125E-2
MEAN_MOTION_DDOT = 0

CCSDS_OMM_VERS = 2.0
CREATION_DATE  = 
ORIGINATOR     = 

OBJECT_NAME    = GHS-01
OBJECT_ID      = 1998-067XM
CENTER_NAME    = EARTH
REF_FRAME      = TEME
TIME_SYSTEM    = UTC
MEAN_ELEMENT_THEORY = SGP/SGP4

EPOCH          = 2025-11-26T09:44:29.861952
MEAN_MOTION    = 15.67947376
ECCENTRICITY   = .000675
INCLINATION    = 51.6283
RA_OF_ASC_NODE = 218.7245
ARG_OF_PERICENTER = 182.1787
MEAN_ANOMALY   = 177.9181

EPHEMERIS_TYPE = 0
CLASSIFICATION_TYPE = U
NORAD_CAT_ID   = 65733
ELEMENT_SET_NO = 999
REV_AT_EPOCH   = 1061
BSTAR          = .13042E-2
MEAN_MOTION_DOT = .149427E-2
MEAN_MOTION_DDOT = 0

CCSDS_OMM_VERS = 2.0
CREATION_DATE  = 
ORIGINATOR     = 

OBJECT_NAME    = YOTSUBA-KULOVER
OBJECT_ID      = 1998-067XN
CENTER_NAME    = EARTH
REF_FRAME      = TEME
TIME_SYSTEM    = UTC
MEAN_ELEMENT_THEORY = SGP/SGP4

EPOCH          = 2025-11-26T02:24:40.528512
MEAN_MOTION    = 15.56841036
ECCENTRICITY   = .00024099
INCLINATION    = 51.6301
RA_OF_ASC_NODE = 223.4329
ARG_OF_PERICENTER = 132.1457
MEAN_ANOMALY   = 227.9740

EPHEMERIS_TYPE = 0
CLASSIFICATION_TYPE = U
NORAD_CAT_ID   = 65941
ELEMENT_SET_NO = 999
REV_AT_EPOCH   = 726
BSTAR          = .9028157E-3
MEAN_MOTION_DOT = .66108E-3
MEAN_MOTION_DDOT = 0

CCSDS_OMM_VERS = 2.0
CREATION_DATE  = 
ORIGINATOR     = 

OBJECT_NAME    = BOTAN
OBJECT_ID      = 1998-067XP
CENTER_NAME    = EARTH
REF_FRAME      = TEME
TIME_SYSTEM    = UTC
MEAN_ELEMENT_THEORY = SGP/SGP4

EPOCH          = 2025-11-26T01:42:26.690400
MEAN_MOTION    = 15.59015960
ECCENTRICITY   = .00046943
INCLINATION    = 51.6292
RA_OF_ASC_NODE = 223.2382
ARG_OF_PERICENTER = 136.9718
MEAN_ANOMALY   = 223.1642

EPHEMERIS_TYPE = 0
CLASSIFICATION_TYPE = U
NORAD_CAT_ID   = 65942
ELEMENT_SET_NO = 999
REV_AT_EPOCH   = 726
BSTAR          = .11748212E-2
MEAN_MOTION_DOT = .93897E-3
MEAN_MOTION_DDOT = 0

CCSDS_OMM_VERS = 2.0
CREATION_DATE  = 
ORIGINATOR     = 

OBJECT_NAME    = E-KAGAKU-1
OBJECT_ID      = 1998-067XQ
CENTER_NAME    = EARTH
REF_FRAME      = TEME
TIME_SYSTEM    = UTC
MEAN_ELEMENT_THEORY = SGP/SGP4

EPOCH          = 2025-11-26T02:24:16.330464
MEAN_MOTION    = 15.56818438
ECCENTRICITY   = .00039139
INCLINATION    = 51.6305
RA_OF_ASC_NODE = 223.4334
ARG_OF_PERICENTER = 118.0377
MEAN_ANOMALY   = 242.1011

EPHEMERIS_TYPE = 0
CLASSIFICATION_TYPE = U
NORAD_CAT_ID   = 65943
ELEMENT_SET_NO = 999
REV_AT_EPOCH   = 726
BSTAR          = .89891055E-3
MEAN_MOTION_DOT = .65773E-3
MEAN_MOTION_DDOT = 0

CCSDS_OMM_VERS = 2.0
CREATION_DATE  = 
ORIGINATOR     = 

OBJECT_NAME    = HRC MONOBLOCK CAMERA
OBJECT_ID      = 1998-067XR
CENTER_NAME    = EARTH
REF_FRAME      = TEME
TIME_SYSTEM    = UTC
MEAN_ELEMENT_THEORY = SGP/SGP4

EPOCH          = 2025-11-26T10:32:14.874720
MEAN_MOTION    = 15.52696422
ECCENTRICITY   = .0004662
INCLINATION    = 51.6297
RA_OF_ASC_NODE = 222.6917
ARG_OF_PERICENTER = 119.7011
MEAN_ANOMALY   = 240.4444

EPHEMERIS_TYPE = 0
CLASSIFICATION_TYPE = U
NORAD_CAT_ID   = 66052
ELEMENT_SET_NO = 999
REV_AT_EPOCH   = 630
BSTAR          = .56311E-3
MEAN_MOTION_DOT = .35084E-3
MEAN_MOTION_DDOT = 0

CCSDS_OMM_VERS = 2.0
CREATION_DATE  = 
ORIGINATOR     = 

OBJECT_NAME    = HTV-X1
OBJECT_ID      = 2025-241A
CENTER_NAME    = EARTH
REF_FRAME      = TEME
TIME_SYSTEM    = UTC
MEAN_ELEMENT_THEORY = SGP/SGP4

EPOCH          = 2025-11-26T05:19:44.164416
MEAN_MOTION    = 15.49091452
ECCENTRICITY   = .00038201
INCLINATION    = 51.6311
RA_OF_ASC_NODE = 224.2419
ARG_OF_PERICENTER = 169.3460
MEAN_ANOMALY   = 190.7610

EPHEMERIS_TYPE = 0
CLASSIFICATION_TYPE = U
NORAD_CAT_ID   = 66174
ELEMENT_SET_NO = 999
REV_AT_EPOCH   = 51
BSTAR          = .20377242E-3
MEAN_MOTION_DOT = .10829E-3
MEAN_MOTION_DDOT = 0

